0 FENGYUN 1C DEB
1 36696U 99025DZS 13280.79019873  .00001858  00000-0  10825-2 0  1850
2 36696 098.7939 214.5620 0034396 087.7915 303.2584 14.09447722260989
0 FENGYUN 1C DEB
1 36696U 99025DZS 13283.06682991  .00002162  00000-0  12550-2 0  1867
2 36696 098.7941 216.7854 0034528 081.6679 334.6451 14.09461521261303
0 FENGYUN 1C DEB
1 36696U 99025DZS 13286.04920375  .00001925  00000-0  11199-2 0  1874
2 36696 098.7947 219.6980 0034700 073.6120 347.0725 14.09476161261729
0 FENGYUN 1C DEB
1 36696U 99025DZS 13289.03075468  .00002872  00000-0  16586-2 0  1888
2 36696 098.7948 222.6096 0034784 065.3138 355.7440 14.09490951262141
0 FENGYUN 1C DEB
1 36696U 99025DZS 13294.07172578  .00003470  00000-0  19975-2 0  1899
2 36696 098.7947 227.5340 0034979 052.0025 013.7812 14.09514171262853
